{
    "links": {
        "self": "http://www.neowsapp.com/rest/v1/neo/54051143?api_key=iIulBulltgU6a56xZRHN4H3l9WmuAYTsLGpBGhQ2"
    },
    "id": "54051143",
    "neo_reference_id": "54051143",
    "name": "(2020 QQ)",
    "designation": "2020 QQ",
    "nasa_jpl_url": "http://ssd.jpl.nasa.gov/sbdb.cgi?sstr=54051143",
    "absolute_magnitude_h": 27.245,
    "estimated_diameter": {
        "kilometers": {
            "estimated_diameter_min": 0.0094526804,
            "estimated_diameter_max": 0.0211368361
        },
        "meters": {
            "estimated_diameter_min": 9.4526804476,
            "estimated_diameter_max": 21.1368360503
        },
        "miles": {
            "estimated_diameter_min": 0.0058736215,
            "estimated_diameter_max": 0.013133817
        },
        "feet": {
            "estimated_diameter_min": 31.0127321196,
            "estimated_diameter_max": 69.3465771874
        }
    },
    "is_potentially_hazardous_asteroid": false,
    "close_approach_data": [
        {
            "close_approach_date": "2020-08-14",
            "close_approach_date_full": "2020-Aug-14 10:33",
            "epoch_date_close_approach": 1597401180000,
            "relative_velocity": {
                "kilometers_per_second": "16.511774396",
                "kilometers_per_hour": "59442.3878256544",
                "miles_per_hour": "36935.1881464462"
            },
            "miss_distance": {
                "astronomical": "0.0140767455",
                "lunar": "5.4758539995",
                "kilometers": "2105851.143332085",
                "miles": "1308515.223809373"
            },
            "orbiting_body": "Earth"
        }
    ],
    "orbital_data": {
        "orbit_id": "1",
        "orbit_determination_date": "2020-08-18 05:12:27",
        "first_observation_date": "2020-08-17",
        "last_observation_date": "2020-08-18",
        "data_arc_in_days": 1,
        "observations_used": 35,
        "orbit_uncertainty": "8",
        "minimum_orbit_intersection": ".0121119",
        "jupiter_tisserand_invariant": "3.586",
        "epoch_osculation": "2459079.5",
        "eccentricity": ".6111114137059844",
        "semi_major_axis": "1.989724360249178",
        "inclination": "7.512708240330991",
        "ascending_node_longitude": "146.3107768855189",
        "orbital_period": "1025.150912147275",
        "perihelion_distance": ".7737810935720675",
        "perihelion_argument": "106.7140804318651",
        "aphelion_distance": "3.205667626926289",
        "perihelion_time": "2459030.735947097578",
        "mean_anomaly": "17.12436562935032",
        "mean_motion": ".3511678092798516",
        "equinox": "J2000",
        "orbit_class": {
            "orbit_class_type": "APO",
            "orbit_class_description": "Near-Earth asteroid orbits which cross the Earth’s orbit similar to that of 1862 Apollo",
            "orbit_class_range": "a (semi-major axis) > 1.0 AU; q (perihelion) < 1.017 AU"
        }
    },
    "is_sentry_object": false
}